start=new Date('2021-12-27T00:00:00.000Z').valueOf();
sats=[{"TLE_LINE2":"2 46742  53.0562   8.8576 0001633  67.1599 292.9562 15.06397573 65439","MEAN_MOTION_DOT":"-0.00001447","OBJECT_TYPE":"PAYLOAD","SEMIMAJOR_AXIS":"6925.356","RA_OF_ASC_NODE":"8.8576","GP_ID":"192495595","NORAD_CAT_ID":"46742","REF_FRAME":"TEME","BSTAR":"-0.00007823200000","CENTER_NAME":"EARTH","PERIAPSIS":"546.090","MEAN_MOTION":"15.06397573","OBJECT_NAME":"STARLINK-1872","MEAN_ANOMALY":"292.9562","APOAPSIS":"548.352","SITE":"AFETR","MEAN_MOTION_DDOT":"0.0000000000000","RCS_SIZE":"LARGE","INCLINATION":"53.0562","REV_AT_EPOCH":"6543","ELEMENT_SET_NO":"999","EPOCH":"2021-12-26T11:59:18.357792","EPHEMERIS_TYPE":"0","TLE_LINE1":"1 46742U 20074D   21360.49951803 -.00001447  00000-0 -78232-4 0  9991","CLASSIFICATION_TYPE":"U","FILE":"3251546","MEAN_ELEMENT_THEORY":"SGP4","TIME_SYSTEM":"UTC","COUNTRY_CODE":"US","ECCENTRICITY":"0.00016330","OBJECT_ID":"2020-074D","ARG_OF_PERICENTER":"67.1599","DECAY_DATE":null,"PERIOD":"95.592","LAUNCH_DATE":"2020-10-24"},{"OBJECT_TYPE":"PAYLOAD","MEAN_MOTION_DOT":"0.00000276","TLE_LINE2":"2 46743  53.0550   9.6549 0002805 167.1972 192.9089 15.06402217 65417","SEMIMAJOR_AXIS":"6925.342","GP_ID":"192495335","RA_OF_ASC_NODE":"9.6549","NORAD_CAT_ID":"46743","REF_FRAME":"TEME","BSTAR":"0.00003747000000","CENTER_NAME":"EARTH","OBJECT_NAME":"STARLINK-1892","MEAN_MOTION":"15.06402217","PERIAPSIS":"545.264","SITE":"AFETR","APOAPSIS":"549.149","MEAN_ANOMALY":"192.9089","RCS_SIZE":"LARGE","INCLINATION":"53.0550","MEAN_MOTION_DDOT":"0.0000000000000","EPHEMERIS_TYPE":"0","EPOCH":"2021-12-26T07:44:32.592480","ELEMENT_SET_NO":"999","REV_AT_EPOCH":"6541","COUNTRY_CODE":"US","TIME_SYSTEM":"UTC","TLE_LINE1":"1 46743U 20074E   21360.32259945  .00000276  00000-0  37470-4 0  9998","FILE":"3251546","MEAN_ELEMENT_THEORY":"SGP4","CLASSIFICATION_TYPE":"U","ECCENTRICITY":"0.00028050","OBJECT_ID":"2020-074E","DECAY_DATE":null,"ARG_OF_PERICENTER":"167.1972","PERIOD":"95.592","LAUNCH_DATE":"2020-10-24"},{"PERIOD":"95.592","LAUNCH_DATE":"2020-10-24","OBJECT_ID":"2020-074F","ECCENTRICITY":"0.00016040","ARG_OF_PERICENTER":"66.1986","DECAY_DATE":null,"REV_AT_EPOCH":"6541","ELEMENT_SET_NO":"999","EPOCH":"2021-12-26T08:11:04.938432","EPHEMERIS_TYPE":"0","TLE_LINE1":"1 46744U 20074F   21360.34102938  .00001180  00000-0  98132-4 0  9997","MEAN_ELEMENT_THEORY":"SGP4","FILE":"3251546","CLASSIFICATION_TYPE":"U","TIME_SYSTEM":"UTC","COUNTRY_CODE":"US","MEAN_ANOMALY":"293.9171","APOAPSIS":"548.325","SITE":"AFETR","MEAN_MOTION_DDOT":"0.0000000000000","INCLINATION":"53.0540","RCS_SIZE":"LARGE","PERIAPSIS":"546.103","MEAN_MOTION":"15.06399908","OBJECT_NAME":"STARLINK-1894","REF_FRAME":"TEME","BSTAR":"0.00009813200000","CENTER_NAME":"EARTH","RA_OF_ASC_NODE":"9.5683","GP_ID":"192494096","NORAD_CAT_ID":"46744","TLE_LINE2":"2 46744  53.0540   9.5683 0001604  66.1986 293.9171 15.06399908 65410","MEAN_MOTION_DOT":"0.00001180","OBJECT_TYPE":"PAYLOAD","SEMIMAJOR_AXIS":"6925.349"},{"SEMIMAJOR_AXIS":"6812.764","OBJECT_TYPE":"PAYLOAD","MEAN_MOTION_DOT":"0.00016256","TLE_LINE2":"2 46745  53.0563 359.6174 0003437  67.9105 292.2265 15.43894987 65557","NORAD_CAT_ID":"46745","GP_ID":"192494346","RA_OF_ASC_NODE":"359.6174","BSTAR":"0.00036066000000","CENTER_NAME":"EARTH","REF_FRAME":"TEME","MEAN_MOTION":"15.43894987","OBJECT_NAME":"STARLINK-1898","PERIAPSIS":"432.287","RCS_SIZE":"LARGE","INCLINATION":"53.0563","MEAN_MOTION_DDOT":"0.0000000000000","SITE":"AFETR","APOAPSIS":"436.970","MEAN_ANOMALY":"292.2265","COUNTRY_CODE":"US","TIME_SYSTEM":"UTC","FILE":"3251546","TLE_LINE1":"1 46745U 20074G   21360.36561493  .00016256  00000-0  36066-3 0  9992","CLASSIFICATION_TYPE":"U","MEAN_ELEMENT_THEORY":"SGP4","EPOCH":"2021-12-26T08:46:29.129952","EPHEMERIS_TYPE":"0","ELEMENT_SET_NO":"999","REV_AT_EPOCH":"6555","DECAY_DATE":null,"ARG_OF_PERICENTER":"67.9105","ECCENTRICITY":"0.00034370","OBJECT_ID":"2020-074G","LAUNCH_DATE":"2020-10-24","PERIOD":"93.271"},{"CENTER_NAME":"EARTH","BSTAR":"0.00013304000000","REF_FRAME":"TEME","MEAN_MOTION":"15.06402512","OBJECT_NAME":"STARLINK-1905","PERIAPSIS":"546.051","SEMIMAJOR_AXIS":"6925.341","MEAN_MOTION_DOT":"0.00001701","OBJECT_TYPE":"PAYLOAD","TLE_LINE2":"2 46746  53.0557   8.6131 0001668  65.5048 294.6115 15.06402512 65445","NORAD_CAT_ID":"46746","GP_ID":"192495096","RA_OF_ASC_NODE":"8.6131","ARG_OF_PERICENTER":"65.5048","DECAY_DATE":null,"OBJECT_ID":"2020-074H","ECCENTRICITY":"0.00016680","LAUNCH_DATE":"2020-10-24","PERIOD":"95.592","MEAN_MOTION_DDOT":"0.0000000000000","RCS_SIZE":"LARGE","INCLINATION":"53.0557","APOAPSIS":"548.361","SITE":"AFETR","MEAN_ANOMALY":"294.6115","COUNTRY_CODE":"US","FILE":"3251546","TLE_LINE1":"1 46746U 20074H   21360.55481848  .00001701  00000-0  13304-3 0  9998","MEAN_ELEMENT_THEORY":"SGP4","CLASSIFICATION_TYPE":"U","TIME_SYSTEM":"UTC","ELEMENT_SET_NO":"999","EPOCH":"2021-12-26T13:18:56.316672","EPHEMERIS_TYPE":"0","REV_AT_EPOCH":"6544"},{"COUNTRY_CODE":"US","FILE":"3251546","TLE_LINE1":"1 46747U 20074J   21360.33733767  .00000138  00000-0  28192-4 0  9990","CLASSIFICATION_TYPE":"U","MEAN_ELEMENT_THEORY":"SGP4","TIME_SYSTEM":"UTC","ELEMENT_SET_NO":"999","EPHEMERIS_TYPE":"0","EPOCH":"2021-12-26T08:05:45.974688","REV_AT_EPOCH":"6541","MEAN_MOTION_DDOT":"0.0000000000000","INCLINATION":"53.0555","RCS_SIZE":"LARGE","APOAPSIS":"548.361","SITE":"AFETR","MEAN_ANOMALY":"297.6369","LAUNCH_DATE":"2020-10-24","PERIOD":"95.592","ARG_OF_PERICENTER":"62.4787","DECAY_DATE":null,"OBJECT_ID":"2020-074J","ECCENTRICITY":"0.00016450","NORAD_CAT_ID":"46747","GP_ID":"192495835","RA_OF_ASC_NODE":"9.5831","SEMIMAJOR_AXIS":"6925.357","MEAN_MOTION_DOT":"0.00000138","OBJECT_TYPE":"PAYLOAD","TLE_LINE2":"2 46747  53.0555   9.5831 0001645  62.4787 297.6369 15.06397227 65419","OBJECT_NAME":"STARLINK-1908","MEAN_MOTION":"15.06397227","PERIAPSIS":"546.083","BSTAR":"0.00002819200000","CENTER_NAME":"EARTH","REF_FRAME":"TEME"},{"RA_OF_ASC_NODE":"8.6712","GP_ID":"192525754","NORAD_CAT_ID":"46748","TLE_LINE2":"2 46748  53.0552   8.6712 0001666  67.1965 292.9200 15.06402082 65449","OBJECT_TYPE":"PAYLOAD","MEAN_MOTION_DOT":"0.00003427","SEMIMAJOR_AXIS":"6925.342","PERIAPSIS":"546.053","OBJECT_NAME":"STARLINK-1910","MEAN_MOTION":"15.06402082","REF_FRAME":"TEME","CENTER_NAME":"EARTH","BSTAR":"0.00024882000000","REV_AT_EPOCH":"6544","EPHEMERIS_TYPE":"0","EPOCH":"2021-12-26T13:03:00.519264","ELEMENT_SET_NO":"999","TIME_SYSTEM":"UTC","FILE":"3251846","TLE_LINE1":"1 46748U 20074K   21360.54375601  .00003427  00000-0  24882-3 0  9998","CLASSIFICATION_TYPE":"U","MEAN_ELEMENT_THEORY":"SGP4","COUNTRY_CODE":"US","MEAN_ANOMALY":"292.9200","SITE":"AFETR","APOAPSIS":"548.361","RCS_SIZE":"LARGE","INCLINATION":"53.0552","MEAN_MOTION_DDOT":"0.0000000000000","PERIOD":"95.592","LAUNCH_DATE":"2020-10-24","ECCENTRICITY":"0.00016660","OBJECT_ID":"2020-074K","DECAY_DATE":null,"ARG_OF_PERICENTER":"67.1965"},{"NORAD_CAT_ID":"46749","GP_ID":"192494846","RA_OF_ASC_NODE":"8.6360","SEMIMAJOR_AXIS":"6925.323","OBJECT_TYPE":"PAYLOAD","MEAN_MOTION_DOT":"0.00000316","TLE_LINE2":"2 46749  53.0563   8.6360 0001483  67.8195 292.2952 15.06408287 65440","MEAN_MOTION":"15.06408287","OBJECT_NAME":"STARLINK-1911","PERIAPSIS":"546.161","BSTAR":"0.00004012100000","CENTER_NAME":"EARTH","REF_FRAME":"TEME","COUNTRY_CODE":"US","TIME_SYSTEM":"UTC","CLASSIFICATION_TYPE":"U","TLE_LINE1":"1 46749U 20074L   21360.55111830  .00000316  00000-0  40121-4 0  9991","FILE":"3251546","MEAN_ELEMENT_THEORY":"SGP4","EPOCH":"2021-12-26T13:13:36.621120","EPHEMERIS_TYPE":"0","ELEMENT_SET_NO":"999","REV_AT_EPOCH":"6544","RCS_SIZE":"LARGE","INCLINATION":"53.0563","MEAN_MOTION_DDOT":"0.0000000000000","SITE":"AFETR","APOAPSIS":"548.215","MEAN_ANOMALY":"292.2952","LAUNCH_DATE":"2020-10-24","PERIOD":"95.592","DECAY_DATE":null,"ARG_OF_PERICENTER":"67.8195","ECCENTRICITY":"0.00014830","OBJECT_ID":"2020-074L"},{"MEAN_MOTION_DDOT":"0.0000000000000","INCLINATION":"53.0557","RCS_SIZE":"LARGE","MEAN_ANOMALY":"301.1790","APOAPSIS":"548.507","SITE":"AFETR","TLE_LINE1":"1 46751U 20074N   21360.54744284 -.00000975  00000-0 -46550-4 0  9993","FILE":"3251747","MEAN_ELEMENT_THEORY":"SGP4","CLASSIFICATION_TYPE":"U","TIME_SYSTEM":"UTC","COUNTRY_CODE":"US","REV_AT_EPOCH":"6545","ELEMENT_SET_NO":"999","EPHEMERIS_TYPE":"0","EPOCH":"2021-12-26T13:08:19.061376","ARG_OF_PERICENTER":"58.9380","DECAY_DATE":null,"ECCENTRICITY":"0.00018490","OBJECT_ID":"2020-074N","LAUNCH_DATE":"2020-10-24","PERIOD":"95.592","SEMIMAJOR_AXIS":"6925.361","TLE_LINE2":"2 46751  53.0557   8.6552 0001849  58.9380 301.1790 15.06395848 65451","MEAN_MOTION_DOT":"-0.00000975","OBJECT_TYPE":"PAYLOAD","NORAD_CAT_ID":"46751","RA_OF_ASC_NODE":"8.6552","GP_ID":"192501267","BSTAR":"-0.00004655000000","CENTER_NAME":"EARTH","REF_FRAME":"TEME","PERIAPSIS":"545.946","MEAN_MOTION":"15.06395848","OBJECT_NAME":"STARLINK-1920"},{"REF_FRAME":"TEME","BSTAR":"0.00004425100000","CENTER_NAME":"EARTH","PERIAPSIS":"546.233","OBJECT_NAME":"STARLINK-1921","MEAN_MOTION":"15.06397453","TLE_LINE2":"2 46752  53.0546   8.9017 0001427  64.5356 295.5781 15.06397453 65446","MEAN_MOTION_DOT":"0.00000378","OBJECT_TYPE":"PAYLOAD","SEMIMAJOR_AXIS":"6925.356","RA_OF_ASC_NODE":"8.9017","GP_ID":"192501272","NORAD_CAT_ID":"46752","OBJECT_ID":"2020-074P","ECCENTRICITY":"0.00014270","ARG_OF_PERICENTER":"64.5356","DECAY_DATE":null,"PERIOD":"95.592","LAUNCH_DATE":"2020-10-24","MEAN_ANOMALY":"295.5781","APOAPSIS":"548.210","SITE":"AFETR","MEAN_MOTION_DDOT":"0.0000000000000","INCLINATION":"53.0546","RCS_SIZE":"LARGE","REV_AT_EPOCH":"6544","ELEMENT_SET_NO":"999","EPHEMERIS_TYPE":"0","EPOCH":"2021-12-26T11:48:41.985504","TLE_LINE1":"1 46752U 20074P   21360.49215261  .00000378  00000-0  44251-4 0  9997","CLASSIFICATION_TYPE":"U","FILE":"3251747","MEAN_ELEMENT_THEORY":"SGP4","TIME_SYSTEM":"UTC","COUNTRY_CODE":"US"}];
